SL-3 R/B                
1 13403U 82079B   25339.98179006  .00009642  00000+0  39917-3 0  9991
2 13403  81.1466 303.6258 0026925 120.7547 239.6343 15.23469535363427
SL-14 R/B               
1 13553U 82092B   25339.95603985  .00000930  00000+0  10198-3 0  9998
2 13553  82.5687 229.0555 0018900 251.2101 205.5257 14.86545068315005
SL-3 R/B                
1 13819U 83010B   25339.83459538  .00021799  00000+0  48762-3 0  9998
2 13819  81.1034 117.0454 0017543  14.8662 345.3092 15.43183296343457
SL-3 R/B                
1 14208U 83075B   25339.94706352  .00015595  00000+0  44446-3 0  9995
2 14208  97.6097 336.2034 0021964 200.0737 159.9645 15.35930378315751
COSMOS 1536             
1 14699U 84013A   25339.90519209  .00008789  00000+0  37823-3 0  9999
2 14699  82.5452 200.9414 0013220 252.2667 107.7127 15.22401925258343
SL-14 R/B               
1 14820U 84027B   25339.95596919  .00000945  00000+0  10559-3 0  9991
2 14820  82.5408 332.9186 0016444 285.4200  74.5200 14.85863007233712
SL-8 R/B                
1 15483U 85006B   25339.66243304  .00000530  00000+0  18458-3 0  9996
2 15483  74.0466  74.1554 0018386   8.1056  97.0814 14.37714861140514
SL-12 R/B(2)            
1 15772U 85042D   25339.99397321  .00000218  00000+0  11934-3 0  9997
2 15772  71.1083 285.6708 0037689 271.3724 156.8772 14.21948518101077
SL-14 R/B               
1 15945U 85069B   25339.83462142  .00001125  00000+0  12468-3 0  9996
2 15945  82.5261 113.1942 0019754 140.0529 220.2146 14.86311470158891
SL-16 R/B               
1 16182U 85097B   25339.74013041 -.00000066  00000+0 -93268-5 0  9995
2 16182  71.0030 338.3400 0006242  21.8369 151.3315 14.16581684 73929
SL-14 R/B               
1 16496U 86006B   25339.76732688  .00001245  00000+0  13042-3 0  9999
2 16496  82.5266 348.1125 0075629 223.2056 136.3213 14.86657673135258
COSMOS 1743             
1 16719U 86034A   25339.94848041  .00037718  00000+0  63267-3 0  9997
2 16719  82.5339 171.6428 0004751 282.7527  77.3194 15.51632082165685
