CCSDS_OMM_VERS = 2.0
CREATION_DATE  = 
ORIGINATOR     = 

OBJECT_NAME    = SL-3 R/B
OBJECT_ID      = 1982-079B
CENTER_NAME    = EARTH
REF_FRAME      = TEME
TIME_SYSTEM    = UTC
MEAN_ELEMENT_THEORY = SGP/SGP4

EPOCH          = 2025-12-05T23:33:46.661184
MEAN_MOTION    = 15.23469535
ECCENTRICITY   = .00269252
INCLINATION    = 81.1466
RA_OF_ASC_NODE = 303.6258
ARG_OF_PERICENTER = 120.7547
MEAN_ANOMALY   = 239.6343

EPHEMERIS_TYPE = 0
CLASSIFICATION_TYPE = U
NORAD_CAT_ID   = 13403
ELEMENT_SET_NO = 999
REV_AT_EPOCH   = 36342
BSTAR          = .39916716E-3
MEAN_MOTION_DOT = .9642E-4
MEAN_MOTION_DDOT = 0

CCSDS_OMM_VERS = 2.0
CREATION_DATE  = 
ORIGINATOR     = 

OBJECT_NAME    = SL-14 R/B
OBJECT_ID      = 1982-092B
CENTER_NAME    = EARTH
REF_FRAME      = TEME
TIME_SYSTEM    = UTC
MEAN_ELEMENT_THEORY = SGP/SGP4

EPOCH          = 2025-12-05T22:56:41.843040
MEAN_MOTION    = 14.86545068
ECCENTRICITY   = .00189006
INCLINATION    = 82.5687
RA_OF_ASC_NODE = 229.0555
ARG_OF_PERICENTER = 251.2101
MEAN_ANOMALY   = 205.5257

EPHEMERIS_TYPE = 0
CLASSIFICATION_TYPE = U
NORAD_CAT_ID   = 13553
ELEMENT_SET_NO = 999
REV_AT_EPOCH   = 31500
BSTAR          = .10197923E-3
MEAN_MOTION_DOT = .93E-5
MEAN_MOTION_DDOT = 0

CCSDS_OMM_VERS = 2.0
CREATION_DATE  = 
ORIGINATOR     = 

OBJECT_NAME    = SL-3 R/B
OBJECT_ID      = 1983-010B
CENTER_NAME    = EARTH
REF_FRAME      = TEME
TIME_SYSTEM    = UTC
MEAN_ELEMENT_THEORY = SGP/SGP4

EPOCH          = 2025-12-05T20:01:49.040832
MEAN_MOTION    = 15.43183296
ECCENTRICITY   = .00175432
INCLINATION    = 81.1034
RA_OF_ASC_NODE = 117.0454
ARG_OF_PERICENTER = 14.8662
MEAN_ANOMALY   = 345.3092

EPHEMERIS_TYPE = 0
CLASSIFICATION_TYPE = U
NORAD_CAT_ID   = 13819
ELEMENT_SET_NO = 999
REV_AT_EPOCH   = 34345
BSTAR          = .48761962E-3
MEAN_MOTION_DOT = .21799E-3
MEAN_MOTION_DDOT = 0

CCSDS_OMM_VERS = 2.0
CREATION_DATE  = 
ORIGINATOR     = 

OBJECT_NAME    = SL-3 R/B
OBJECT_ID      = 1983-075B
CENTER_NAME    = EARTH
REF_FRAME      = TEME
TIME_SYSTEM    = UTC
MEAN_ELEMENT_THEORY = SGP/SGP4

EPOCH          = 2025-12-05T22:43:46.288128
MEAN_MOTION    = 15.35930378
ECCENTRICITY   = .00219647
INCLINATION    = 97.6097
RA_OF_ASC_NODE = 336.2034
ARG_OF_PERICENTER = 200.0737
MEAN_ANOMALY   = 159.9645

EPHEMERIS_TYPE = 0
CLASSIFICATION_TYPE = U
NORAD_CAT_ID   = 14208
ELEMENT_SET_NO = 999
REV_AT_EPOCH   = 31575
BSTAR          = .44446243E-3
MEAN_MOTION_DOT = .15595E-3
MEAN_MOTION_DDOT = 0

CCSDS_OMM_VERS = 2.0
CREATION_DATE  = 
ORIGINATOR     = 

OBJECT_NAME    = COSMOS 1536
OBJECT_ID      = 1984-013A
CENTER_NAME    = EARTH
REF_FRAME      = TEME
TIME_SYSTEM    = UTC
MEAN_ELEMENT_THEORY = SGP/SGP4

EPOCH          = 2025-12-05T21:43:28.596576
MEAN_MOTION    = 15.22401925
ECCENTRICITY   = .00132203
INCLINATION    = 82.5452
RA_OF_ASC_NODE = 200.9414
ARG_OF_PERICENTER = 252.2667
MEAN_ANOMALY   = 107.7127

EPHEMERIS_TYPE = 0
CLASSIFICATION_TYPE = U
NORAD_CAT_ID   = 14699
ELEMENT_SET_NO = 999
REV_AT_EPOCH   = 25834
BSTAR          = .37823029E-3
MEAN_MOTION_DOT = .8789E-4
MEAN_MOTION_DDOT = 0

CCSDS_OMM_VERS = 2.0
CREATION_DATE  = 
ORIGINATOR     = 

OBJECT_NAME    = SL-14 R/B
OBJECT_ID      = 1984-027B
CENTER_NAME    = EARTH
REF_FRAME      = TEME
TIME_SYSTEM    = UTC
MEAN_ELEMENT_THEORY = SGP/SGP4

EPOCH          = 2025-12-05T22:56:35.738016
MEAN_MOTION    = 14.85863007
ECCENTRICITY   = .00164448
INCLINATION    = 82.5408
RA_OF_ASC_NODE = 332.9186
ARG_OF_PERICENTER = 285.4200
MEAN_ANOMALY   = 74.5200

EPHEMERIS_TYPE = 0
CLASSIFICATION_TYPE = U
NORAD_CAT_ID   = 14820
ELEMENT_SET_NO = 999
REV_AT_EPOCH   = 23371
BSTAR          = .10559107E-3
MEAN_MOTION_DOT = .945E-5
MEAN_MOTION_DDOT = 0

CCSDS_OMM_VERS = 2.0
CREATION_DATE  = 
ORIGINATOR     = 

OBJECT_NAME    = SL-8 R/B
OBJECT_ID      = 1985-006B
CENTER_NAME    = EARTH
REF_FRAME      = TEME
TIME_SYSTEM    = UTC
MEAN_ELEMENT_THEORY = SGP/SGP4

EPOCH          = 2025-12-05T15:53:54.214656
MEAN_MOTION    = 14.37714861
ECCENTRICITY   = .0018386
INCLINATION    = 74.0466
RA_OF_ASC_NODE = 74.1554
ARG_OF_PERICENTER = 8.1056
MEAN_ANOMALY   = 97.0814

EPHEMERIS_TYPE = 0
CLASSIFICATION_TYPE = U
NORAD_CAT_ID   = 15483
ELEMENT_SET_NO = 999
REV_AT_EPOCH   = 14051
BSTAR          = .18458092E-3
MEAN_MOTION_DOT = .53E-5
MEAN_MOTION_DDOT = 0

CCSDS_OMM_VERS = 2.0
CREATION_DATE  = 
ORIGINATOR     = 

OBJECT_NAME    = SL-12 R/B(2)
OBJECT_ID      = 1985-042D
CENTER_NAME    = EARTH
REF_FRAME      = TEME
TIME_SYSTEM    = UTC
MEAN_ELEMENT_THEORY = SGP/SGP4

EPOCH          = 2025-12-05T23:51:19.285344
MEAN_MOTION    = 14.21948518
ECCENTRICITY   = .00376895
INCLINATION    = 71.1083
RA_OF_ASC_NODE = 285.6708
ARG_OF_PERICENTER = 271.3724
MEAN_ANOMALY   = 156.8772

EPHEMERIS_TYPE = 0
CLASSIFICATION_TYPE = U
NORAD_CAT_ID   = 15772
ELEMENT_SET_NO = 999
REV_AT_EPOCH   = 10107
BSTAR          = .11934076E-3
MEAN_MOTION_DOT = .218E-5
MEAN_MOTION_DDOT = 0

CCSDS_OMM_VERS = 2.0
CREATION_DATE  = 
ORIGINATOR     = 

OBJECT_NAME    = SL-14 R/B
OBJECT_ID      = 1985-069B
CENTER_NAME    = EARTH
REF_FRAME      = TEME
TIME_SYSTEM    = UTC
MEAN_ELEMENT_THEORY = SGP/SGP4

EPOCH          = 2025-12-05T20:01:51.290688
MEAN_MOTION    = 14.86311470
ECCENTRICITY   = .00197546
INCLINATION    = 82.5261
RA_OF_ASC_NODE = 113.1942
ARG_OF_PERICENTER = 140.0529
MEAN_ANOMALY   = 220.2146

EPHEMERIS_TYPE = 0
CLASSIFICATION_TYPE = U
NORAD_CAT_ID   = 15945
ELEMENT_SET_NO = 999
REV_AT_EPOCH   = 15889
BSTAR          = .12468024E-3
MEAN_MOTION_DOT = .1125E-4
MEAN_MOTION_DDOT = 0

CCSDS_OMM_VERS = 2.0
CREATION_DATE  = 
ORIGINATOR     = 

OBJECT_NAME    = SL-16 R/B
OBJECT_ID      = 1985-097B
CENTER_NAME    = EARTH
REF_FRAME      = TEME
TIME_SYSTEM    = UTC
MEAN_ELEMENT_THEORY = SGP/SGP4

EPOCH          = 2025-12-05T17:45:47.267424
MEAN_MOTION    = 14.16581684
ECCENTRICITY   = .00062423
INCLINATION    = 71.0030
RA_OF_ASC_NODE = 338.3400
ARG_OF_PERICENTER = 21.8369
MEAN_ANOMALY   = 151.3315

EPHEMERIS_TYPE = 0
CLASSIFICATION_TYPE = U
NORAD_CAT_ID   = 16182
ELEMENT_SET_NO = 999
REV_AT_EPOCH   = 7392
BSTAR          = -.9326786E-5
MEAN_MOTION_DOT = -.66E-6
MEAN_MOTION_DDOT = 0

CCSDS_OMM_VERS = 2.0
CREATION_DATE  = 
ORIGINATOR     = 

OBJECT_NAME    = SL-14 R/B
OBJECT_ID      = 1986-006B
CENTER_NAME    = EARTH
REF_FRAME      = TEME
TIME_SYSTEM    = UTC
MEAN_ELEMENT_THEORY = SGP/SGP4

EPOCH          = 2025-12-05T18:24:57.042432
MEAN_MOTION    = 14.86657673
ECCENTRICITY   = .0075629
INCLINATION    = 82.5266
RA_OF_ASC_NODE = 348.1125
ARG_OF_PERICENTER = 223.2056
MEAN_ANOMALY   = 136.3213

EPHEMERIS_TYPE = 0
CLASSIFICATION_TYPE = U
NORAD_CAT_ID   = 16496
ELEMENT_SET_NO = 999
REV_AT_EPOCH   = 13525
BSTAR          = .13041779E-3
MEAN_MOTION_DOT = .1245E-4
MEAN_MOTION_DDOT = 0

CCSDS_OMM_VERS = 2.0
CREATION_DATE  = 
ORIGINATOR     = 

OBJECT_NAME    = COSMOS 1743
OBJECT_ID      = 1986-034A
CENTER_NAME    = EARTH
REF_FRAME      = TEME
TIME_SYSTEM    = UTC
MEAN_ELEMENT_THEORY = SGP/SGP4

EPOCH          = 2025-12-05T22:45:48.707424
MEAN_MOTION    = 15.51632082
ECCENTRICITY   = .0004751
INCLINATION    = 82.5339
RA_OF_ASC_NODE = 171.6428
ARG_OF_PERICENTER = 282.7527
MEAN_ANOMALY   = 77.3194

EPHEMERIS_TYPE = 0
CLASSIFICATION_TYPE = U
NORAD_CAT_ID   = 16719
ELEMENT_SET_NO = 999
REV_AT_EPOCH   = 16568
BSTAR          = .63267239E-3
MEAN_MOTION_DOT = .37718E-3
MEAN_MOTION_DDOT = 0

